start=new Date('2023-05-27T00:00:00.000Z').valueOf();
sats=[{"PERIAPSIS":"546.795","MEAN_ELEMENT_THEORY":"SGP4","BSTAR":"0.00089847000000","NORAD_CAT_ID":"48281","DECAY_DATE":null,"EPHEMERIS_TYPE":"0","COUNTRY_CODE":"US","RA_OF_ASC_NODE":"325.7263","MEAN_ANOMALY":"242.1018","SEMIMAJOR_AXIS":"6925.262","REF_FRAME":"TEME","REV_AT_EPOCH":"11497","MEAN_MOTION_DOT":"0.00013137","ARG_OF_PERICENTER":"118.0020","FILE":"3917850","MEAN_MOTION_DDOT":"0.0000000000000","CENTER_NAME":"EARTH","ELEMENT_SET_NO":"999","LAUNCH_DATE":"2021-04-29","SITE":"AFETR","OBJECT_ID":"2021-036F","TLE_LINE1":"1 48281U 21036F   23146.88350171  .00013137  00000-0  89847-3 0  9998","PERIOD":"95.590","CLASSIFICATION_TYPE":"U","RCS_SIZE":"LARGE","MEAN_MOTION":"15.06428115","INCLINATION":"53.0540","EPOCH":"2023-05-26T21:12:14.547744","TIME_SYSTEM":"UTC","ECCENTRICITY":"0.00004800","OBJECT_NAME":"STARLINK-2520","GP_ID":"232585393","APOAPSIS":"547.460","TLE_LINE2":"2 48281  53.0540 325.7263 0000480 118.0020 242.1018 15.06428115114977","OBJECT_TYPE":"PAYLOAD"},{"MEAN_ELEMENT_THEORY":"SGP4","BSTAR":"0.00110890000000","PERIAPSIS":"546.240","MEAN_ANOMALY":"278.7941","DECAY_DATE":null,"EPHEMERIS_TYPE":"0","NORAD_CAT_ID":"48282","RA_OF_ASC_NODE":"330.6222","COUNTRY_CODE":"US","MEAN_MOTION_DOT":"0.00016290","ARG_OF_PERICENTER":"81.3190","SEMIMAJOR_AXIS":"6925.241","REF_FRAME":"TEME","REV_AT_EPOCH":"11491","MEAN_MOTION_DDOT":"0.0000000000000","FILE":"3917850","SITE":"AFETR","OBJECT_ID":"2021-036G","TLE_LINE1":"1 48282U 21036G   23146.90700168  .00016290  00000-0  11089-2 0  9992","CENTER_NAME":"EARTH","ELEMENT_SET_NO":"999","LAUNCH_DATE":"2021-04-29","MEAN_MOTION":"15.06435122","PERIOD":"95.590","CLASSIFICATION_TYPE":"U","RCS_SIZE":"LARGE","EPOCH":"2023-05-26T21:46:04.945152","TIME_SYSTEM":"UTC","INCLINATION":"53.0544","TLE_LINE2":"2 48282  53.0544 330.6222 0001250  81.3190 278.7941 15.06435122114918","OBJECT_TYPE":"PAYLOAD","ECCENTRICITY":"0.00012500","GP_ID":"232586144","OBJECT_NAME":"STARLINK-2558","APOAPSIS":"547.972"},{"GP_ID":"232584892","OBJECT_NAME":"STARLINK-2516","APOAPSIS":"547.863","ECCENTRICITY":"0.00010710","OBJECT_TYPE":"PAYLOAD","TLE_LINE2":"2 48283  53.0541 330.6403 0001071  89.4009 270.7103 15.06430097114914","INCLINATION":"53.0541","TIME_SYSTEM":"UTC","EPOCH":"2023-05-26T21:40:46.592256","RCS_SIZE":"LARGE","CLASSIFICATION_TYPE":"U","PERIOD":"95.590","MEAN_MOTION":"15.06430097","LAUNCH_DATE":"2021-04-29","ELEMENT_SET_NO":"999","CENTER_NAME":"EARTH","TLE_LINE1":"1 48283U 21036H   23146.90331704  .00016743  00000-0  11393-2 0  9990","OBJECT_ID":"2021-036H","SITE":"AFETR","FILE":"3917850","MEAN_MOTION_DDOT":"0.0000000000000","REV_AT_EPOCH":"11491","REF_FRAME":"TEME","SEMIMAJOR_AXIS":"6925.256","ARG_OF_PERICENTER":"89.4009","MEAN_MOTION_DOT":"0.00016743","COUNTRY_CODE":"US","RA_OF_ASC_NODE":"330.6403","DECAY_DATE":null,"NORAD_CAT_ID":"48283","EPHEMERIS_TYPE":"0","MEAN_ANOMALY":"270.7103","PERIAPSIS":"546.380","BSTAR":"0.00113930000000","MEAN_ELEMENT_THEORY":"SGP4"},{"MEAN_ANOMALY":"282.2511","COUNTRY_CODE":"US","RA_OF_ASC_NODE":"330.9513","DECAY_DATE":null,"NORAD_CAT_ID":"48284","EPHEMERIS_TYPE":"0","BSTAR":"0.00110280000000","MEAN_ELEMENT_THEORY":"SGP4","PERIAPSIS":"546.322","MEAN_MOTION_DDOT":"0.0000000000000","FILE":"3917850","ARG_OF_PERICENTER":"77.8610","MEAN_MOTION_DOT":"0.00016193","REV_AT_EPOCH":"11489","REF_FRAME":"TEME","SEMIMAJOR_AXIS":"6925.275","MEAN_MOTION":"15.06424102","RCS_SIZE":"LARGE","CLASSIFICATION_TYPE":"U","PERIOD":"95.591","TLE_LINE1":"1 48284U 21036J   23146.83328454  .00016193  00000-0  11028-2 0  9995","OBJECT_ID":"2021-036J","SITE":"AFETR","ELEMENT_SET_NO":"999","LAUNCH_DATE":"2021-04-29","CENTER_NAME":"EARTH","OBJECT_TYPE":"PAYLOAD","TLE_LINE2":"2 48284  53.0541 330.9513 0001181  77.8610 282.2511 15.06424102114899","APOAPSIS":"547.958","GP_ID":"232584642","OBJECT_NAME":"STARLINK-2564","ECCENTRICITY":"0.00011810","TIME_SYSTEM":"UTC","EPOCH":"2023-05-26T19:59:55.784256","INCLINATION":"53.0541"},{"CLASSIFICATION_TYPE":"U","RCS_SIZE":"LARGE","PERIOD":"95.590","MEAN_MOTION":"15.06426654","ELEMENT_SET_NO":"999","LAUNCH_DATE":"2021-04-29","CENTER_NAME":"EARTH","TLE_LINE1":"1 48285U 21036K   23146.89499890  .00013540  00000-0  92550-3 0  9998","SITE":"AFETR","OBJECT_ID":"2021-036K","APOAPSIS":"547.970","GP_ID":"232585894","OBJECT_NAME":"STARLINK-2548","ECCENTRICITY":"0.00012100","OBJECT_TYPE":"PAYLOAD","TLE_LINE2":"2 48285  53.0544 330.6658 0001210  73.6557 286.4565 15.06426654114908","INCLINATION":"53.0544","TIME_SYSTEM":"UTC","EPOCH":"2023-05-26T21:28:47.904960","DECAY_DATE":null,"NORAD_CAT_ID":"48285","EPHEMERIS_TYPE":"0","RA_OF_ASC_NODE":"330.6658","COUNTRY_CODE":"US","MEAN_ANOMALY":"286.4565","PERIAPSIS":"546.294","MEAN_ELEMENT_THEORY":"SGP4","BSTAR":"0.00092550000000","FILE":"3917850","MEAN_MOTION_DDOT":"0.0000000000000","REV_AT_EPOCH":"11490","SEMIMAJOR_AXIS":"6925.267","REF_FRAME":"TEME","MEAN_MOTION_DOT":"0.00013540","ARG_OF_PERICENTER":"73.6557"},{"MEAN_MOTION":"15.06422095","CLASSIFICATION_TYPE":"U","RCS_SIZE":"LARGE","PERIOD":"95.591","TLE_LINE1":"1 48286U 21036L   23146.89225294  .00014104  00000-0  96325-3 0  9995","SITE":"AFETR","OBJECT_ID":"2021-036L","LAUNCH_DATE":"2021-04-29","ELEMENT_SET_NO":"999","CENTER_NAME":"EARTH","OBJECT_TYPE":"PAYLOAD","TLE_LINE2":"2 48286  53.0548 330.6898 0001160  88.5900 271.5222 15.06422095114900","APOAPSIS":"547.949","GP_ID":"232585644","OBJECT_NAME":"STARLINK-2547","ECCENTRICITY":"0.00011600","TIME_SYSTEM":"UTC","EPOCH":"2023-05-26T21:24:50.654016","INCLINATION":"53.0548","MEAN_ANOMALY":"271.5222","DECAY_DATE":null,"EPHEMERIS_TYPE":"0","NORAD_CAT_ID":"48286","RA_OF_ASC_NODE":"330.6898","COUNTRY_CODE":"US","MEAN_ELEMENT_THEORY":"SGP4","BSTAR":"0.00096325000000","PERIAPSIS":"546.343","MEAN_MOTION_DDOT":"0.0000000000000","FILE":"3917850","MEAN_MOTION_DOT":"0.00014104","ARG_OF_PERICENTER":"88.5900","REV_AT_EPOCH":"11490","SEMIMAJOR_AXIS":"6925.281","REF_FRAME":"TEME"},{"MEAN_ANOMALY":"276.5922","NORAD_CAT_ID":"48287","DECAY_DATE":null,"EPHEMERIS_TYPE":"0","RA_OF_ASC_NODE":"330.7035","COUNTRY_CODE":"US","MEAN_ELEMENT_THEORY":"SGP4","BSTAR":"0.00098418000000","PERIAPSIS":"546.352","MEAN_MOTION_DDOT":"0.0000000000000","FILE":"3917850","MEAN_MOTION_DOT":"0.00014419","ARG_OF_PERICENTER":"83.5195","SEMIMAJOR_AXIS":"6925.266","REF_FRAME":"TEME","REV_AT_EPOCH":"11490","MEAN_MOTION":"15.06426847","PERIOD":"95.590","CLASSIFICATION_TYPE":"U","RCS_SIZE":"LARGE","SITE":"AFETR","OBJECT_ID":"2021-036M","TLE_LINE1":"1 48287U 21036M   23146.88857167  .00014419  00000-0  98418-3 0  9999","CENTER_NAME":"EARTH","LAUNCH_DATE":"2021-04-29","ELEMENT_SET_NO":"999","TLE_LINE2":"2 48287  53.0541 330.7035 0001125  83.5195 276.5922 15.06426847114901","OBJECT_TYPE":"PAYLOAD","ECCENTRICITY":"0.00011250","APOAPSIS":"547.910","GP_ID":"232584392","OBJECT_NAME":"STARLINK-2566","EPOCH":"2023-05-26T21:19:32.592288","TIME_SYSTEM":"UTC","INCLINATION":"53.0541"},{"DECAY_DATE":null,"NORAD_CAT_ID":"48288","EPHEMERIS_TYPE":"0","RA_OF_ASC_NODE":"330.7121","COUNTRY_CODE":"US","MEAN_ANOMALY":"250.4690","PERIAPSIS":"546.480","MEAN_ELEMENT_THEORY":"SGP4","BSTAR":"0.00076318000000","FILE":"3917850","MEAN_MOTION_DDOT":"0.0000000000000","REV_AT_EPOCH":"11490","SEMIMAJOR_AXIS":"6925.264","REF_FRAME":"TEME","MEAN_MOTION_DOT":"0.00011113","ARG_OF_PERICENTER":"109.6400","CLASSIFICATION_TYPE":"U","RCS_SIZE":"LARGE","PERIOD":"95.590","MEAN_MOTION":"15.06427465","LAUNCH_DATE":"2021-04-29","ELEMENT_SET_NO":"999","CENTER_NAME":"EARTH","TLE_LINE1":"1 48288U 21036N   23146.88393458  .00011113  00000-0  76318-3 0  9991","SITE":"AFETR","OBJECT_ID":"2021-036N","OBJECT_NAME":"STARLINK-2562","GP_ID":"232585143","APOAPSIS":"547.778","ECCENTRICITY":"0.00009370","OBJECT_TYPE":"PAYLOAD","TLE_LINE2":"2 48288  53.0545 330.7121 0000937 109.6400 250.4690 15.06427465114901","INCLINATION":"53.0545","TIME_SYSTEM":"UTC","EPOCH":"2023-05-26T21:12:51.947712"},{"COUNTRY_CODE":"US","RA_OF_ASC_NODE":"330.7379","NORAD_CAT_ID":"48289","DECAY_DATE":null,"EPHEMERIS_TYPE":"0","MEAN_ANOMALY":"281.2787","PERIAPSIS":"546.505","BSTAR":"0.00067879000000","MEAN_ELEMENT_THEORY":"SGP4","FILE":"3917850","MEAN_MOTION_DDOT":"0.0000000000000","REV_AT_EPOCH":"11490","REF_FRAME":"TEME","SEMIMAJOR_AXIS":"6925.271","ARG_OF_PERICENTER":"78.8304","MEAN_MOTION_DOT":"0.00009850","RCS_SIZE":"LARGE","CLASSIFICATION_TYPE":"U","PERIOD":"95.591","MEAN_MOTION":"15.06425154","LAUNCH_DATE":"2021-04-29","ELEMENT_SET_NO":"999","CENTER_NAME":"EARTH","TLE_LINE1":"1 48289U 21036P   23146.88119873  .00009850  00000-0  67879-3 0  9996","OBJECT_ID":"2021-036P","SITE":"AFETR","APOAPSIS":"547.768","GP_ID":"232585394","OBJECT_NAME":"STARLINK-2545","ECCENTRICITY":"0.00009120","OBJECT_TYPE":"PAYLOAD","TLE_LINE2":"2 48289  53.0550 330.7379 0000912  78.8304 281.2787 15.06425154114908","INCLINATION":"53.0550","TIME_SYSTEM":"UTC","EPOCH":"2023-05-26T21:08:55.570272"},{"SEMIMAJOR_AXIS":"6925.280","REF_FRAME":"TEME","REV_AT_EPOCH":"11490","MEAN_MOTION_DOT":"0.00011797","ARG_OF_PERICENTER":"84.1728","FILE":"3917850","MEAN_MOTION_DDOT":"0.0000000000000","PERIAPSIS":"546.334","MEAN_ELEMENT_THEORY":"SGP4","BSTAR":"0.00080903000000","DECAY_DATE":null,"EPHEMERIS_TYPE":"0","NORAD_CAT_ID":"48290","RA_OF_ASC_NODE":"330.7582","COUNTRY_CODE":"US","MEAN_ANOMALY":"275.9395","INCLINATION":"53.0549","EPOCH":"2023-05-26T21:03:37.000512","TIME_SYSTEM":"UTC","ECCENTRICITY":"0.00011710","APOAPSIS":"547.956","GP_ID":"232586145","OBJECT_NAME":"STARLINK-2540","TLE_LINE2":"2 48290  53.0549 330.7582 0001171  84.1728 275.9395 15.06422363114906","OBJECT_TYPE":"PAYLOAD","CENTER_NAME":"EARTH","LAUNCH_DATE":"2021-04-29","ELEMENT_SET_NO":"999","SITE":"AFETR","OBJECT_ID":"2021-036Q","TLE_LINE1":"1 48290U 21036Q   23146.87751158  .00011797  00000-0  80903-3 0  9991","PERIOD":"95.591","CLASSIFICATION_TYPE":"U","RCS_SIZE":"LARGE","MEAN_MOTION":"15.06422363"}];
